
# Worst residual: 60.65 km
# MJD 59673.000000 (2022 Apr  4  0:00)
Sar2601 = A10Gn1z
1 79988U 22999ZZN 22094.49919926  .00000000  00000-0  00000-0 0 15636
2 79988 018.2312 056.2695 7540214 331.0406 179.1804 01.06523776    00

# Worst residual: 70.29 km
# MJD 59674.000000 (2022 Apr  5  0:00)
Sar2601 = A10Gn1z
1 79988U 22999ZZN 22095.49919926  .00000000  00000-0  00000-0 0 15637
2 79988 018.4438 055.8066 7551644 332.0717 202.6152 01.06515677    02

# Worst residual: 157.17 km
# MJD 59675.000000 (2022 Apr  6  0:00)
Sar2601 = A10Gn1z
1 79988U 22999ZZN 22096.49919926  .00000000  00000-0  00000-0 0 15638
2 79988 018.6915 055.3419 7573409 333.1294 226.0094 01.06597650    02

# Worst residual: 232.93 km
# MJD 59676.000000 (2022 Apr  7  0:00)
Sar2601 = A10Gn1z
1 79988U 22999ZZN 22097.49919926  .00000000  00000-0  00000-0 0 15639
2 79988 018.9163 054.9096 7589218 334.1739 249.3643 01.06648350    08

# Worst residual: 188.04 km
# MJD 59677.000000 (2022 Apr  8  0:00)
Sar2601 = A10Gn1z
1 79988U 22999ZZN 22098.49919926  .00000000  00000-0  00000-0 0 15630
2 79988 019.1786 054.4828 7606593 335.2168 272.7474 01.06738525    00

# Worst residual: 189.66 km
# MJD 59678.000000 (2022 Apr  9  0:00)
Sar2601 = A10Gn1z
1 79988U 22999ZZN 22099.49919926  .00000000  00000-0  00000-0 0 15631
2 79988 019.4146 054.0827 7616971 336.2372 296.1265 01.06824545    03

# Worst residual: 196.72 km
# MJD 59679.000000 (2022 Apr 10  0:00)
Sar2601 = A10Gn1z
1 79988U 22999ZZN 22100.49919926  .00000000  00000-0  00000-0 0 15634
2 79988 019.6607 053.6942 7630000 337.2460 319.5560 01.06926195    00

# Worst residual: 184.08 km
# MJD 59680.000000 (2022 Apr 11  0:00)
Sar2601 = A10Gn1z
1 79988U 22999ZZN 22101.49919926  .00000000  00000-0  00000-0 0 15635
2 79988 019.9022 053.3420 7635753 338.1844 343.0416 01.07008644    01

# Worst residual: 147.71 km
# MJD 59681.000000 (2022 Apr 12  0:00)
Sar2601 = A10Gn1z
1 79988U 22999ZZN 22102.49919926  .00000000  00000-0  00000-0 0 15636
2 79988 020.1401 052.9947 7644196 339.1193 006.5438 01.07057900    08

# Worst residual: 127.15 km
# MJD 59682.000000 (2022 Apr 13  0:00)
Sar2601 = A10Gn1z
1 79988U 22999ZZN 22103.49919926  .00000000  00000-0  00000-0 0 15637
2 79988 020.3831 052.6490 7652819 340.0309 030.0970 01.07043349    03

# Worst residual: 138.45 km
# MJD 59683.000000 (2022 Apr 14  0:00)
Sar2601 = A10Gn1z
1 79988U 22999ZZN 22104.49919926  .00000000  00000-0  00000-0 0 15638
2 79988 020.6105 052.3323 7662138 340.9451 053.5469 01.06950505    07

# Worst residual: 154.76 km
# MJD 59684.000000 (2022 Apr 15  0:00)
Sar2601 = A10Gn1z
1 79988U 22999ZZN 22105.49919926  .00000000  00000-0  00000-0 0 15639
2 79988 020.8895 051.9671 7669892 341.8956 076.9949 01.06870326    04

# Worst residual: 153.95 km
# MJD 59685.000000 (2022 Apr 16  0:00)
Sar2601 = A10Gn1z
1 79988U 22999ZZN 22106.49919926  .00000000  00000-0  00000-0 0 15630
2 79988 021.1425 051.6303 7676183 342.8424 100.3384 01.06765925    01

# Worst residual: 134.81 km
# MJD 59686.000000 (2022 Apr 17  0:00)
Sar2601 = A10Gn1z
1 79988U 22999ZZN 22107.49919926  .00000000  00000-0  00000-0 0 15631
2 79988 021.4349 051.2666 7681468 343.8117 123.6684 01.06685193    08

# Worst residual: 124.65 km
# MJD 59687.000000 (2022 Apr 18  0:00)
Sar2601 = A10Gn1z
1 79988U 22999ZZN 22108.49919926  .00000000  00000-0  00000-0 0 15632
2 79988 021.7035 050.9763 7681848 344.7059 147.0031 01.06614909    07

# Worst residual: 93.51 km
# MJD 59688.000000 (2022 Apr 19  0:00)
Sar2601 = A10Gn1z
1 79988U 22999ZZN 22109.49919926  .00000000  00000-0  00000-0 0 15633
2 79988 021.9899 050.6741 7681744 345.6119 170.3172 01.06569005    03

# Worst residual: 55.57 km
# MJD 59689.000000 (2022 Apr 20  0:00)
Sar2601 = A10Gn1z
1 79988U 22999ZZN 22110.49919926  .00000000  00000-0  00000-0 0 15635
2 79988 022.2661 050.4054 7678190 346.4506 193.6928 01.06511521    06

# Worst residual: 102.14 km
# MJD 59690.000000 (2022 Apr 21  0:00)
Sar2601 = A10Gn1z
1 79988U 22999ZZN 22111.49919926  .00000000  00000-0  00000-0 0 15636
2 79988 022.5228 050.1416 7685431 347.2666 217.1313 01.06548910    01

# Worst residual: 175.45 km
# MJD 59691.000000 (2022 Apr 22  0:00)
Sar2601 = A10Gn1z
1 79988U 22999ZZN 22112.49919926  .00000000  00000-0  00000-0 0 15637
2 79988 022.7987 049.9192 7693271 348.0941 240.4706 01.06613523    06

# Worst residual: 177.85 km
# MJD 59692.000000 (2022 Apr 23  0:00)
Sar2601 = A10Gn1z
1 79988U 22999ZZN 22113.49919926  .00000000  00000-0  00000-0 0 15638
2 79988 023.0951 049.6989 7699050 348.8919 263.8755 01.06665714    08

# Worst residual: 171.65 km
# MJD 59693.000000 (2022 Apr 24  0:00)
Sar2601 = A10Gn1z
1 79988U 22999ZZN 22114.49919926  .00000000  00000-0  00000-0 0 15639
2 79988 023.3524 049.4740 7701642 349.7366 287.2027 01.06748624    01

# Worst residual: 178.68 km
# MJD 59694.000000 (2022 Apr 25  0:00)
Sar2601 = A10Gn1z
1 79988U 22999ZZN 22115.49919926  .00000000  00000-0  00000-0 0 15630
2 79988 023.6508 049.2847 7703847 350.5189 310.6360 01.06832093    09

# Worst residual: 189.42 km
# MJD 59695.000000 (2022 Apr 26  0:00)
Sar2601 = A10Gn1z
1 79988U 22999ZZN 22116.49919926  .00000000  00000-0  00000-0 0 15631
2 79988 023.8933 049.1278 7703048 351.2829 334.0503 01.06944837    01

# Worst residual: 162.91 km
# MJD 59696.000000 (2022 Apr 27  0:00)
Sar2601 = A10Gn1z
1 79988U 22999ZZN 22117.49919926  .00000000  00000-0  00000-0 0 15632
2 79988 024.1468 048.9579 7702079 352.0340 357.5509 01.07025317    09

# Worst residual: 126.85 km
# MJD 59697.000000 (2022 Apr 28  0:00)
Sar2601 = A10Gn1z
1 79988U 22999ZZN 22118.49919926  .00000000  00000-0  00000-0 0 15633
2 79988 024.4027 048.7700 7699332 352.7924 021.0618 01.07052166    05

# Worst residual: 143.97 km
# MJD 59698.000000 (2022 Apr 29  0:00)
Sar2601 = A10Gn1z
1 79988U 22999ZZN 22119.49919926  .00000000  00000-0  00000-0 0 15634
2 79988 024.6396 048.6469 7698990 353.4985 044.5556 01.07011986    07

# Worst residual: 164.26 km
# MJD 59699.000000 (2022 Apr 30  0:00)
Sar2601 = A10Gn1z
1 79988U 22999ZZN 22120.49919926  .00000000  00000-0  00000-0 0 15636
2 79988 024.9087 048.4710 7696212 354.2514 068.0452 01.06921248    02

# Worst residual: 159.19 km
# MJD 59700.000000 (2022 May  1  0:00)
Sar2601 = A10Gn1z
1 79988U 22999ZZN 22121.49919926  .00000000  00000-0  00000-0 0 15637
2 79988 025.1353 048.3215 7692595 355.0068 091.4313 01.06834422    06

# Worst residual: 150.31 km
# MJD 59701.000000 (2022 May  2  0:00)
Sar2601 = A10Gn1z
1 79988U 22999ZZN 22122.49919926  .00000000  00000-0  00000-0 0 15638
2 79988 025.3914 048.1687 7688925 355.7530 114.8173 01.06747903    06

# Worst residual: 148.45 km
# MJD 59702.000000 (2022 May  3  0:00)
Sar2601 = A10Gn1z
1 79988U 22999ZZN 22123.49919926  .00000000  00000-0  00000-0 0 15639
2 79988 025.6483 048.0271 7681273 356.5102 138.1274 01.06665370    09

# Worst residual: 147.98 km
# MJD 59703.000000 (2022 May  4  0:00)
Sar2601 = A10Gn1z
1 79988U 22999ZZN 22124.49919926  .00000000  00000-0  00000-0 0 15630
2 79988 025.9077 047.8990 7673188 357.2327 161.4832 01.06599052    01
